NORAD_CAT_ID,OBJECT_NAME,OBJECT_TYPE,EPOCH,MEAN_MOTION,ECCENTRICITY,INCLINATION,RA_OF_ASC_NODE,ARG_OF_PERICENTER,MEAN_ANOMALY,BSTAR,MEAN_MOTION_DOT,MEAN_MOTION_DDOT,TLE_LINE0,TLE_LINE1,TLE_LINE2,SEMIMAJOR_AXIS,PERIOD,APOGEE,PERIGEE,DECAYED
53390.0,STARLINK-4517,PAYLOAD,2022-11-15 13:55:01,15.08830681,0.0002368,53.2176,156.5267,41.059,319.058,2.8528e-05,1.66e-06,0.0,0 STARLINK-4517,1 53390U 22097C   22319.57988156  .00000166  00000-0  28528-4 0  9998,2 53390  53.2176 156.5267 0002368  41.0590 319.0580 15.08830681 16133,6917.909000000002,95.438,541.4119999999998,538.136,0.0
53390.0,STARLINK-4517,PAYLOAD,2022-11-15 18:41:11,15.08830648,0.0002482,53.2176,155.6348,40.1601,319.9575,8.7087e-05,1.098e-05,0.0,0 STARLINK-4517,1 53390U 22097C   22319.77860225  .00001098  00000-0  87087-4 0  9996,2 53390  53.2176 155.6348 0002482  40.1601 319.9575 15.08830648 16162,6917.909000000002,95.438,541.491,538.057,0.0
53390.0,STARLINK-4517,PAYLOAD,2022-11-16 13:45:49,15.08833295,0.0002414,53.2176,152.0667,40.9748,319.1425,0.00014398,2.003e-05,0.0,0 STARLINK-4517,1 53390U 22097C   22320.57348514  .00002003  00000-0  14398-3 0  9999,2 53390  53.2176 152.0667 0002414  40.9748 319.1425 15.08833295 15483,6917.901,95.438,541.436,538.096,0.0
53390.0,STARLINK-4517,PAYLOAD,2022-11-16 20:07:21,15.08836513,0.0002427,53.2177,150.8773,41.6547,318.463,0.00016532,2.344e-05,0.0,0 STARLINK-4517,1 53390U 22097C   22320.83844431  .00002344  00000-0  16532-3 0  9997,2 53390  53.2177 150.8773 0002427  41.6547 318.4630 15.08836513 16327,6917.891,95.438,541.435,538.077,0.0
53390.0,STARLINK-4517,PAYLOAD,2022-11-17 05:39:40,15.08835642,0.0002444,53.2177,149.0934,42.2404,317.8776,0.00013772,1.904e-05,0.0,0 STARLINK-4517,1 53390U 22097C   22321.23588769  .00001904  00000-0  13772-3 0  9995,2 53390  53.2177 149.0934 0002444  42.2404 317.8776 15.08835642 16386,6917.894,95.438,541.4490000000002,538.068,0.0
53390.0,STARLINK-4517,PAYLOAD,2022-11-17 23:08:56,15.08829951,0.0002512,53.2178,145.8223,43.8314,316.2877,1.6907999999999998e-05,-1.9e-07,0.0,0 STARLINK-4517,1 53390U 22097C   22321.96453746 -.00000019  00000-0  16908-4 0  9993,2 53390  53.2178 145.8223 0002512  43.8314 316.2877 15.08829951 15699,6917.911,95.438,541.514,538.038,0.0
53390.0,STARLINK-4517,PAYLOAD,2022-11-18 11:52:01,15.08834133,0.0002538,53.218,143.4431,44.3598,315.7597,3.3146e-05,2.39e-06,0.0,0 STARLINK-4517,1 53390U 22097C   22322.49445748  .00000239  00000-0  33146-4 0  9991,2 53390  53.2180 143.4431 0002538  44.3598 315.7597 15.08834133 16574,6917.898,95.438,541.519,538.008,0.0
53390.0,STARLINK-4517,PAYLOAD,2022-11-18 18:13:33,15.08835849,0.0002559,53.2181,142.2534,44.925,315.1949,5.6538e-06,-1.98e-06,0.0,0 STARLINK-4517,1 53390U 22097C   22322.75941811 -.00000198  00000-0  56538-5 0  9998,2 53390  53.2181 142.2534 0002559  44.9250 315.1949 15.08835849 16615,6917.893,95.438,541.528,537.988,0.0
53390.0,STARLINK-4517,PAYLOAD,2022-11-19 05:21:15,15.08838413,0.0002574,53.2177,140.1718,45.2091,314.911,4.1529e-05,3.73e-06,0.0,0 STARLINK-4517,1 53390U 22097C   22323.22309663  .00000373  00000-0  41529-4 0  9991,2 53390  53.2177 140.1718 0002574  45.2091 314.9110 15.08838413 15880,6917.885,95.438,541.531,537.97,0.0
53390.0,STARLINK-4517,PAYLOAD,2022-11-19 18:04:20,15.08836369,0.00025,53.2178,137.7931,44.8652,315.2542,0.00014018,1.943e-05,0.0,0 STARLINK-4517,1 53390U 22097C   22323.75301701  .00001943  00000-0  14018-3 0  9990,2 53390  53.2178 137.7931 0002500  44.8652 315.2542 15.08836369 16766,6917.891,95.438,541.486,538.0269999999998,0.0
53390.0,STARLINK-4517,PAYLOAD,2022-11-20 05:12:02,15.08841183,0.0002545,53.2178,135.7117,45.596,314.524,0.00014133,1.962e-05,0.0,0 STARLINK-4517,1 53390U 22097C   22324.21669544  .00001962  00000-0  14133-3 0  9993,2 53390  53.2178 135.7117 0002545  45.5960 314.5240 15.08841183 16834,6917.877,95.437,541.502,537.981,0.0
53390.0,STARLINK-4517,PAYLOAD,2022-11-20 21:05:53,15.08847534,0.000257,53.2178,132.7379,47.0261,313.0946,0.00015068,2.111e-05,0.0,0 STARLINK-4517,1 53390U 22097C   22324.87909045  .00002111  00000-0  15068-3 0  9993,2 53390  53.2178 132.7379 0002570  47.0261 313.0946 15.08847534 16934,6917.857,95.437,541.5,537.944,0.0
53390.0,STARLINK-4517,PAYLOAD,2022-11-21 11:24:21,15.08853533,0.0002598,53.2177,130.0616,47.9859,312.1354,0.00017562,2.509e-05,0.0,0 STARLINK-4517,1 53390U 22097C   22325.47524421  .00002509  00000-0  17562-3 0  9993,2 53390  53.2177 130.0616 0002598  47.9859 312.1354 15.08853533 17020,6917.839,95.437,541.501,537.9069999999998,0.0
53390.0,STARLINK-4517,PAYLOAD,2022-11-21 20:56:39,15.08859432,0.0002612,53.2179,128.2774,48.9405,311.1812,0.00020074,2.9100000000000013e-05,0.0,0 STARLINK-4517,1 53390U 22097C   22325.87267767  .00002910  00000-0  20074-3 0  9992,2 53390  53.2179 128.2774 0002612  48.9405 311.1812 15.08859432 17089,6917.821,95.436,541.493,537.879,0.0
53390.0,STARLINK-4517,PAYLOAD,2022-11-21 22:32:02,15.08861634,0.0002657,53.2168,127.98,48.6952,311.4269,0.00026145,3.878e-05,0.0,0 STARLINK-4517,1 53390U 22097C   22325.93891934  .00003878  00000-0  26145-3 0  9997,2 53390  53.2168 127.9800 0002657  48.6952 311.4269 15.08861634 16294,6917.814,95.436,541.5169999999998,537.841,0.0
53390.0,STARLINK-4517,PAYLOAD,2022-11-22 17:36:40,15.08850589,0.0002634999999999,53.2184,124.4116,50.7509,309.3716,4.8757e-05,4.88e-06,0.0,0 STARLINK-4517,1 53390U 22097C   22326.73379860  .00000488  00000-0  48757-4 0  9993,2 53390  53.2184 124.4116 0002635  50.7509 309.3716 15.08850589 16416,6917.848000000001,95.437,541.536,537.89,0.0
53390.0,STARLINK-4517,PAYLOAD,2022-11-22 19:12:03,15.08849475,0.0002643,53.2184,124.1143,50.7315,309.3912,3.1003e-05,2.05e-06,0.0,0 STARLINK-4517,1 53390U 22097C   22326.80003815  .00000205  00000-0  31003-4 0  9998,2 53390  53.2184 124.1143 0002643  50.7315 309.3912 15.08849475 17227,6917.851,95.437,541.545,537.888,0.0
53390.0,STARLINK-4517,PAYLOAD,2022-11-23 03:08:59,15.088378699999998,0.000266,53.2181,122.6269,51.1922,308.9308,-7.3686e-05,-1.461e-05,0.0,0 STARLINK-4517,1 53390U 22097C   22327.13124651 -.00001461  00000-0 -73686-4 0  9997,2 53390  53.2181 122.6269 0002660  51.1922 308.9308 15.08837870 16470,6917.887,95.438,541.592,537.9119999999998,0.0
53390.0,STARLINK-4517,PAYLOAD,2022-11-23 11:05:55,15.08844067,0.000266,53.2184,121.1394,51.5216,308.6014,-8.6764e-05,-1.669e-05,0.0,0 STARLINK-4517,1 53390U 22097C   22327.46244246 -.00001669  00000-0 -86764-4 0  9997,2 53390  53.2184 121.1394 0002660  51.5216 308.6014 15.08844067 17328,6917.868,95.437,541.573,537.893,0.0
53390.0,STARLINK-4517,PAYLOAD,2022-11-23 19:02:50,15.08841953,0.0002569,53.2182,119.6542,48.4749,311.6464,-8.759100000000001e-05,-1.682e-05,0.0,0 STARLINK-4517,1 53390U 22097C   22327.79364231 -.00001682  00000-0 -87591-4 0  9994,2 53390  53.2182 119.6542 0002569  48.4749 311.6464 15.08841953 17376,6917.874,95.437,541.5169999999998,537.962,0.0
53390.0,STARLINK-4517,PAYLOAD,2022-11-23 22:13:36,15.08842476,0.0002572,53.2182,119.0595,50.0819,310.0399,-8.1515e-05,-1.586e-05,0.0,0 STARLINK-4517,1 53390U 22097C   22327.92612170 -.00001586  00000-0 -81515-4 0  9990,2 53390  53.2182 119.0595 0002572  50.0819 310.0399 15.08842476 16593,6917.873000000001,95.437,541.5169999999998,537.9590000000002,0.0
53390.0,STARLINK-4517,PAYLOAD,2022-11-24 09:21:18,15.08845466,0.0002884,53.2183,116.978,50.2545,309.8701,-6.205800000000001e-05,-1.276e-05,0.0,0 STARLINK-4517,1 53390U 22097C   22328.38979927 -.00001276  00000-0 -62058-4 0  9994,2 53390  53.2183 116.9780 0002884  50.2545 309.8701 15.08845466 17462,6917.864000000001,95.437,541.724,537.734,0.0
53390.0,STARLINK-4517,PAYLOAD,2022-11-24 18:53:37,15.08844348,0.0002532,53.2183,115.1939,50.0707,310.0508,2.226e-05,6.6e-07,0.0,0 STARLINK-4517,1 53390U 22097C   22328.78723716  .00000066  00000-0  22260-4 0  9996,2 53390  53.2183 115.1939 0002532  50.0707 310.0508 15.08844348 17521,6917.8669999999975,95.437,541.484,537.98,0.0
53390.0,STARLINK-4517,PAYLOAD,2022-11-25 02:50:32,15.088514000000002,0.0002602,53.2184,113.7072,49.6971,310.4248,-7.7316e-05,-1.519e-05,0.0,0 STARLINK-4517,1 53390U 22097C   22329.11843417 -.00001519  00000-0 -77316-4 0  9993,2 53390  53.2184 113.7072 0002602  49.6971 310.4248 15.08851400 16777,6917.846,95.437,541.511,537.911,0.0
53390.0,STARLINK-4517,PAYLOAD,2022-11-25 10:47:28,15.08839964,0.0002555,53.2185,112.2205,48.5572,311.5639,0.0001375999999999,1.902e-05,0.0,0 STARLINK-4517,1 53390U 22097C   22329.44963629  .00001902  00000-0  13760-3 0  9993,2 53390  53.2185 112.2205 0002555  48.5572 311.5639 15.08839964 16825,6917.88,95.438,541.513,537.9780000000002,0.0
53390.0,STARLINK-4517,PAYLOAD,2022-11-25 17:09:01,15.08834749,0.0002499,53.2185,111.0306,47.9349,312.1856,7.6863e-05,9.35e-06,0.0,0 STARLINK-4517,1 53390U 22097C   22329.71460231  .00000935  00000-0  76863-4 0  9993,2 53390  53.2185 111.0306 0002499  47.9349 312.1856 15.08834749 16864,6917.896,95.438,541.49,538.033,0.0
53390.0,STARLINK-4517,PAYLOAD,2022-11-26 09:02:53,15.08813552,0.0002531,53.2181,108.0567,52.9342,307.1881,0.00050642,7.775e-05,0.0,0 STARLINK-4517,1 53390U 22097C   22330.37700895  .00007775  00000-0  50642-3 0  9995,2 53390  53.2181 108.0567 0002531  52.9342 307.1881 15.08813552 16963,6917.9609999999975,95.439,541.577,538.075,0.0
53390.0,STARLINK-4517,PAYLOAD,2022-11-26 18:35:10,15.08852372,0.0002498,53.2181,106.2725,48.1063,312.0142,9.9787e-05,1.301e-05,0.0,0 STARLINK-4517,1 53390U 22097C   22330.77442860  .00001301  00000-0  99787-4 0  9997,2 53390  53.2181 106.2725 0002498  48.1063 312.0142 15.08852372 17024,6917.843000000003,95.437,541.436,537.979,0.0
53390.0,STARLINK-4517,PAYLOAD,2022-11-27 08:53:39,15.08841424,0.0002585,53.2184,103.597,50.3924,309.7296,9.606e-05,1.241e-05,0.0,0 STARLINK-4517,1 53390U 22097C   22331.37059191  .00001241  00000-0  96060-4 0  9999,2 53390  53.2184 103.5970 0002585  50.3924 309.7296 15.08841424 17116,6917.876,95.437,541.529,537.953,0.0
